[{"OBJECT_NAME":"RESURS-P 4","OBJECT_ID":"2024-061A","EPOCH":"2026-03-10T00:09:50.865408","MEAN_MOTION":15.32930455,"ECCENTRICITY":0.00024315,"INCLINATION":97.2654,"RA_OF_ASC_NODE":18.6595,"ARG_OF_PERICENTER":59.481,"MEAN_ANOMALY":300.6672,"EPHEMERIS_TYPE":0,"CLASSIFICATION_TYPE":"U","NORAD_CAT_ID":59371,"ELEMENT_SET_NO":999,"REV_AT_EPOCH":10857,"BSTAR":0.00016169192,"MEAN_MOTION_DOT":5.066e-5,"MEAN_MOTION_DDOT":0},{"OBJECT_NAME":"STARLINK-34637","OBJECT_ID":"2025-147X","EPOCH":"2026-03-09T21:47:06.078336","MEAN_MOTION":15.30225265,"ECCENTRICITY":0.00011304,"INCLINATION":53.1569,"RA_OF_ASC_NODE":241.8392,"ARG_OF_PERICENTER":121.5104,"MEAN_ANOMALY":238.6007,"EPHEMERIS_TYPE":0,"CLASSIFICATION_TYPE":"U","NORAD_CAT_ID":64776,"ELEMENT_SET_NO":999,"REV_AT_EPOCH":3871,"BSTAR":0.00089008304,"MEAN_MOTION_DOT":0.00026116,"MEAN_MOTION_DDOT":0}]
